{"type":"Topology","arcs":[[[0,0],[1,2],[12,67],[7,90],[8,34],[21,89],[16,76],[22,72],[5,23],[1,33],[0,5],[2,18],[4,19],[5,22],[4,12],[33,55],[8,22],[3,14],[1,12],[0,27],[1,19],[0,16],[-3,20],[-3,18],[-6,18],[-11,27]],[[131,810],[41,52],[3,5],[33,62],[19,39],[108,187],[33,55],[77,113],[38,42],[86,74],[37,30],[70,52],[99,53],[141,73],[60,32],[18,6],[12,2],[21,-1],[30,6],[18,2],[11,3],[8,3],[37,20],[17,10],[17,7],[28,6],[47,6],[29,8],[28,10],[28,19],[12,3],[35,7],[114,31],[47,9],[192,43],[38,4],[57,2],[57,29],[18,7],[19,6],[23,5],[64,7],[130,21],[106,8],[10,2],[27,6],[176,44],[39,13],[43,3],[33,6],[16,4],[284,67],[93,19],[77,13],[27,8],[20,7],[34,11],[15,8],[12,6],[13,4],[15,3],[27,3],[313,81],[53,8]],[[3564,2284],[56,6],[64,5],[135,5],[51,2],[142,-4],[125,-9],[30,-6],[17,-5],[24,-9],[39,-12],[14,-2],[86,-10],[11,-3],[54,-15],[48,-17],[103,-27],[78,-25],[39,-11],[26,-6],[22,-4],[34,-3],[133,-6],[6,-1],[46,2],[32,3],[24,0],[39,3],[51,8],[29,6],[58,15],[187,59],[256,81],[22,9],[11,6],[20,13],[29,15],[12,6],[194,127],[42,25],[47,24],[2,-5],[24,15],[23,16],[7,5],[5,4]],[[6061,2564],[22,21],[21,27],[36,44],[52,65],[27,39],[37,54],[19,26],[27,30],[16,23],[19,26],[9,13],[3,4],[46,71],[19,34],[42,81],[96,176],[57,108],[22,44],[18,36],[17,35],[45,113],[20,47],[7,21],[3,20],[0,25],[-1,53],[2,33],[8,36],[8,31],[10,29],[16,27],[9,20],[8,20],[11,36],[14,50],[9,34],[12,50],[9,37],[11,81],[5,35],[7,62],[4,43],[11,56],[24,184],[9,68],[4,61],[1,130],[7,122],[9,116],[15,157],[8,90],[30,304],[9,81],[40,408],[12,105],[7,56],[7,84],[13,101],[7,39],[18,76],[13,61],[16,42],[15,29],[16,34],[53,106],[40,76],[52,80],[63,80],[47,63],[34,36],[32,27],[42,26],[59,38],[81,53],[62,31],[31,15],[32,14],[42,15],[46,16],[82,23],[146,35],[83,14],[72,9]],[[12697,6687],[21,-10],[145,-56],[37,-16],[68,-33],[59,-36],[107,-79],[70,-55],[44,-36],[46,-32],[8,-6],[32,-20],[15,-8],[28,-16],[90,-46],[114,-53],[13,-6]],[[8273,7585],[48,6],[56,4],[29,1],[54,3],[92,7]],[[8552,7606],[85,3]],[[8637,7609],[71,3],[69,1],[0,0],[45,1],[58,0],[114,-5],[50,-2],[65,0]],[[9109,7607],[35,-2],[24,-1]],[[9168,7604],[68,-2],[39,-7],[210,-3],[169,-17],[32,-3]],[[10204,7483],[52,-19],[43,-19],[115,-44],[104,-51],[42,-21],[21,-9]],[[10581,7320],[36,-14],[53,-18],[101,-20],[73,-17],[23,-5],[101,-16],[54,-11],[11,-3]],[[11033,7216],[43,-7],[64,-12],[42,-9]],[[9686,7572],[77,-8],[41,-6],[54,-8],[100,-15],[108,-18],[102,-24],[36,-10]],[[11182,7188],[1,0],[11,-1],[109,-14],[82,-12],[40,-4],[5,-1]],[[11430,7156],[7,-1],[60,-8],[37,-9],[84,-24],[33,-11],[57,-11],[98,-26],[92,-23],[64,-18],[33,-10]],[[12110,6975],[26,-14],[20,-11],[69,-36],[38,-15],[54,-25],[31,-16],[4,-2],[14,-7],[106,-49],[111,-56],[114,-57]],[[11995,7015],[9,-2],[34,-11],[60,-21],[12,-6]]],"transform":{"scale":[0.000008149394846936577,0.0000047556343577616315],"translate":[-0.1788828735492558,51.4737]},"objects":{"water_lines":{"type":"GeometryCollection","geometries":[{"type":"LineString","arcs":[0],"properties":{"osm_id":202183121,"waterway":"river","admin_level":"8","boundary":"administrative","name":"River Thames","layer":null,"tunnel":null,"lock":null,"tourism":null,"width":null,"intermittent":null,"name:zu":"Thames","name:ga":"Tamaise","name:en":"Thames","name:ja":"テムズ","name:cy":"Tafwys","left:district":"Westminster","name:hu":"Temze","name:he":"תמזה","motorboat":"yes","name:de":"Themse","right:district":"Lambeth","name:fr":"Tamise","name:gv":"Thaimish","name:be":"Тэмза","name:ru":"Темза","tidal":"yes","name:pl":"Tâmisa","name:gl":"Támesis","name:zh":"泰晤士河","boat":"yes","name:it":"Tamigi","name:ko":null,"name:fa":null,"name:es":null,"towpath":null,"wikidata":null,"lock_name":null,"lock_ref":null,"right:county":null,"name:nl":null,"left:county":null,"alt_name":null,"wikipedia":null}},{"type":"LineString","arcs":[1],"properties":{"osm_id":202183122,"waterway":"river","admin_level":"8","boundary":"administrative","name":"River Thames","layer":null,"tunnel":null,"lock":null,"tourism":null,"width":null,"intermittent":null,"name:zu":"Thames","name:ga":"Tamaise","name:en":"Thames","name:ja":"テムズ","name:cy":"Tafwys","left:district":"Kensington and Chelsea","name:hu":null,"name:he":"תמזה","motorboat":"yes","name:de":"Themse","right:district":"Lambeth","name:fr":"Tamise","name:gv":"Thaimish","name:be":"Тэмза","name:ru":"Темза","tidal":"yes","name:pl":"Tamiza","name:gl":"Támesis","name:zh":"泰晤士河","boat":"yes","name:it":"Tamigi","name:ko":"템스강","name:fa":null,"name:es":null,"towpath":null,"wikidata":null,"lock_name":null,"lock_ref":null,"right:county":null,"name:nl":null,"left:county":null,"alt_name":null,"wikipedia":null}},{"type":"LineString","arcs":[2],"properties":{"osm_id":202183120,"waterway":"river","admin_level":"8","boundary":"administrative","name":"River Thames","layer":null,"tunnel":null,"lock":null,"tourism":null,"width":null,"intermittent":null,"name:zu":"Thames","name:ga":"Tamaise","name:en":"Thames","name:ja":"テムズ","name:cy":"Tafwys","left:district":"Westminster","name:hu":null,"name:he":"תמזה","motorboat":"yes","name:de":"Themse","right:district":"Wandsworth","name:fr":"Tamise","name:gv":"Thaimish","name:be":"Тэмза","name:ru":"Темза","tidal":"yes","name:pl":"Tâmisa","name:gl":"Támesis","name:zh":"泰晤士河","boat":"yes","name:it":"Tamigi","name:ko":null,"name:fa":null,"name:es":null,"towpath":null,"wikidata":null,"lock_name":null,"lock_ref":null,"right:county":null,"name:nl":null,"left:county":null,"alt_name":null,"wikipedia":null}},{"type":"LineString","arcs":[3],"properties":{"osm_id":198012867,"waterway":"river","admin_level":"8","boundary":"administrative","name":"River Thames","layer":null,"tunnel":null,"lock":null,"tourism":"yes","width":null,"intermittent":null,"name:zu":"Thames","name:ga":"Tamaise","name:en":"River Thames","name:ja":"テムズ","name:cy":"Tafwys","left:district":"Westminster","name:hu":null,"name:he":"תמזה","motorboat":"yes","name:de":"Themse","right:district":"Lambeth","name:fr":"Tamise","name:gv":"Thaimish","name:be":"Тэмза","name:ru":"Темза","tidal":"yes","name:pl":"Tâmisa","name:gl":"Támesis","name:zh":"泰晤士河","boat":"yes","name:it":"Tamigi","name:ko":null,"name:fa":"رود تایمز","name:es":"Támesis","towpath":null,"wikidata":null,"lock_name":null,"lock_ref":null,"right:county":null,"name:nl":null,"left:county":null,"alt_name":null,"wikipedia":null}},{"type":"LineString","arcs":[4],"properties":{"osm_id":608139739,"waterway":"river","admin_level":null,"boundary":null,"name":"River Thames","layer":null,"tunnel":null,"lock":null,"tourism":null,"width":null,"intermittent":null,"name:zu":null,"name:ga":null,"name:en":null,"name:ja":null,"name:cy":null,"left:district":null,"name:hu":null,"name:he":null,"motorboat":"yes","name:de":null,"right:district":null,"name:fr":null,"name:gv":null,"name:be":null,"name:ru":null,"tidal":"yes","name:pl":null,"name:gl":null,"name:zh":null,"boat":"yes","name:it":null,"name:ko":null,"name:fa":null,"name:es":null,"towpath":null,"wikidata":null,"lock_name":null,"lock_ref":null,"right:county":null,"name:nl":null,"left:county":null,"alt_name":null,"wikipedia":null}},{"type":"LineString","arcs":[5],"properties":{"osm_id":198012868,"waterway":"river","admin_level":"6","boundary":"administrative","name":"River Thames","layer":null,"tunnel":null,"lock":null,"tourism":null,"width":null,"intermittent":null,"name:zu":"Thames","name:ga":"Tamaise","name:en":"Thames","name:ja":"テムズ","name:cy":"Tafwys","left:district":null,"name:hu":null,"name:he":"תמזה","motorboat":"yes","name:de":"Themse","right:district":"Lambeth","name:fr":"Tamise","name:gv":"Thaimish","name:be":"Тэмза","name:ru":"Темза","tidal":"yes","name:pl":"Tâmisa","name:gl":"Támesis","name:zh":"泰晤士河","boat":"yes","name:it":"Tamigi","name:ko":null,"name:fa":null,"name:es":null,"towpath":null,"wikidata":null,"lock_name":null,"lock_ref":null,"right:county":"Greater London","name:nl":"Theems","left:county":"City of London","alt_name":null,"wikipedia":null}},{"type":"LineString","arcs":[6],"properties":{"osm_id":608139645,"waterway":"river","admin_level":null,"boundary":null,"name":"River Thames","layer":null,"tunnel":null,"lock":null,"tourism":null,"width":null,"intermittent":null,"name:zu":null,"name:ga":null,"name:en":null,"name:ja":null,"name:cy":null,"left:district":null,"name:hu":null,"name:he":null,"motorboat":"yes","name:de":null,"right:district":null,"name:fr":null,"name:gv":null,"name:be":null,"name:ru":null,"tidal":"yes","name:pl":null,"name:gl":null,"name:zh":null,"boat":"yes","name:it":null,"name:ko":null,"name:fa":null,"name:es":null,"towpath":null,"wikidata":null,"lock_name":null,"lock_ref":null,"right:county":null,"name:nl":null,"left:county":null,"alt_name":null,"wikipedia":null}},{"type":"LineString","arcs":[7],"properties":{"osm_id":197772040,"waterway":"river","admin_level":null,"boundary":null,"name":"River Thames","layer":null,"tunnel":null,"lock":null,"tourism":null,"width":null,"intermittent":null,"name:zu":null,"name:ga":null,"name:en":null,"name:ja":null,"name:cy":null,"left:district":null,"name:hu":null,"name:he":null,"motorboat":"yes","name:de":null,"right:district":null,"name:fr":null,"name:gv":null,"name:be":null,"name:ru":null,"tidal":"yes","name:pl":null,"name:gl":null,"name:zh":null,"boat":"yes","name:it":null,"name:ko":null,"name:fa":null,"name:es":null,"towpath":null,"wikidata":null,"lock_name":null,"lock_ref":null,"right:county":null,"name:nl":null,"left:county":null,"alt_name":null,"wikipedia":null}},{"type":"LineString","arcs":[8],"properties":{"osm_id":197772035,"waterway":"river","admin_level":null,"boundary":null,"name":"River Thames","layer":null,"tunnel":null,"lock":null,"tourism":null,"width":null,"intermittent":null,"name:zu":"Thames","name:ga":"Tamaise","name:en":"Thames","name:ja":"テムズ","name:cy":"Tafwys","left:district":null,"name:hu":null,"name:he":"תמזה","motorboat":"yes","name:de":"Themse","right:district":null,"name:fr":"Tamise","name:gv":"Thaimish","name:be":"Тэмза","name:ru":"Темза","tidal":"yes","name:pl":"Tâmisa","name:gl":"Támesis","name:zh":"泰晤士河","boat":"yes","name:it":"Tamigi","name:ko":null,"name:fa":null,"name:es":null,"towpath":null,"wikidata":null,"lock_name":null,"lock_ref":null,"right:county":null,"name:nl":null,"left:county":null,"alt_name":null,"wikipedia":null}},{"type":"LineString","arcs":[9],"properties":{"osm_id":608139644,"waterway":"river","admin_level":null,"boundary":null,"name":"River Thames","layer":null,"tunnel":null,"lock":null,"tourism":null,"width":null,"intermittent":null,"name:zu":null,"name:ga":null,"name:en":null,"name:ja":null,"name:cy":null,"left:district":null,"name:hu":null,"name:he":null,"motorboat":"yes","name:de":null,"right:district":null,"name:fr":null,"name:gv":null,"name:be":null,"name:ru":null,"tidal":"yes","name:pl":null,"name:gl":null,"name:zh":null,"boat":"yes","name:it":null,"name:ko":null,"name:fa":null,"name:es":null,"towpath":null,"wikidata":null,"lock_name":null,"lock_ref":null,"right:county":null,"name:nl":null,"left:county":null,"alt_name":null,"wikipedia":null}},{"type":"LineString","arcs":[10],"properties":{"osm_id":608139660,"waterway":"river","admin_level":null,"boundary":null,"name":"River Thames","layer":null,"tunnel":null,"lock":null,"tourism":null,"width":null,"intermittent":null,"name:zu":null,"name:ga":null,"name:en":null,"name:ja":null,"name:cy":null,"left:district":null,"name:hu":null,"name:he":null,"motorboat":"yes","name:de":null,"right:district":null,"name:fr":null,"name:gv":null,"name:be":null,"name:ru":null,"tidal":"yes","name:pl":null,"name:gl":null,"name:zh":null,"boat":"yes","name:it":null,"name:ko":null,"name:fa":null,"name:es":null,"towpath":null,"wikidata":null,"lock_name":null,"lock_ref":null,"right:county":null,"name:nl":null,"left:county":null,"alt_name":null,"wikipedia":null}},{"type":"LineString","arcs":[11],"properties":{"osm_id":608139755,"waterway":"river","admin_level":null,"boundary":null,"name":"River Thames","layer":null,"tunnel":null,"lock":null,"tourism":null,"width":null,"intermittent":null,"name:zu":null,"name:ga":null,"name:en":null,"name:ja":null,"name:cy":null,"left:district":null,"name:hu":null,"name:he":null,"motorboat":"yes","name:de":null,"right:district":null,"name:fr":null,"name:gv":null,"name:be":null,"name:ru":null,"tidal":"yes","name:pl":null,"name:gl":null,"name:zh":null,"boat":"yes","name:it":null,"name:ko":null,"name:fa":null,"name:es":null,"towpath":null,"wikidata":null,"lock_name":null,"lock_ref":null,"right:county":null,"name:nl":null,"left:county":null,"alt_name":null,"wikipedia":null}},{"type":"LineString","arcs":[12],"properties":{"osm_id":608139730,"waterway":"river","admin_level":null,"boundary":null,"name":"River Thames","layer":null,"tunnel":null,"lock":null,"tourism":null,"width":null,"intermittent":null,"name:zu":null,"name:ga":null,"name:en":null,"name:ja":null,"name:cy":null,"left:district":null,"name:hu":null,"name:he":null,"motorboat":"yes","name:de":null,"right:district":null,"name:fr":null,"name:gv":null,"name:be":null,"name:ru":null,"tidal":"yes","name:pl":null,"name:gl":null,"name:zh":null,"boat":"yes","name:it":null,"name:ko":null,"name:fa":null,"name:es":null,"towpath":null,"wikidata":null,"lock_name":null,"lock_ref":null,"right:county":null,"name:nl":null,"left:county":null,"alt_name":null,"wikipedia":null}},{"type":"LineString","arcs":[13],"properties":{"osm_id":608139688,"waterway":"river","admin_level":null,"boundary":null,"name":"River Thames","layer":null,"tunnel":null,"lock":null,"tourism":null,"width":null,"intermittent":null,"name:zu":null,"name:ga":null,"name:en":null,"name:ja":null,"name:cy":null,"left:district":null,"name:hu":null,"name:he":null,"motorboat":"yes","name:de":null,"right:district":null,"name:fr":null,"name:gv":null,"name:be":null,"name:ru":null,"tidal":"yes","name:pl":null,"name:gl":null,"name:zh":null,"boat":"yes","name:it":null,"name:ko":null,"name:fa":null,"name:es":null,"towpath":null,"wikidata":null,"lock_name":null,"lock_ref":null,"right:county":null,"name:nl":null,"left:county":null,"alt_name":null,"wikipedia":null}},{"type":"LineString","arcs":[14],"properties":{"osm_id":608139727,"waterway":"river","admin_level":null,"boundary":null,"name":"River Thames","layer":null,"tunnel":null,"lock":null,"tourism":null,"width":null,"intermittent":null,"name:zu":null,"name:ga":null,"name:en":null,"name:ja":null,"name:cy":null,"left:district":null,"name:hu":null,"name:he":null,"motorboat":"yes","name:de":null,"right:district":null,"name:fr":null,"name:gv":null,"name:be":null,"name:ru":null,"tidal":"yes","name:pl":null,"name:gl":null,"name:zh":null,"boat":"yes","name:it":null,"name:ko":null,"name:fa":null,"name:es":null,"towpath":null,"wikidata":null,"lock_name":null,"lock_ref":null,"right:county":null,"name:nl":null,"left:county":null,"alt_name":null,"wikipedia":null}},{"type":"LineString","arcs":[15],"properties":{"osm_id":608139698,"waterway":"river","admin_level":null,"boundary":null,"name":"River Thames","layer":null,"tunnel":null,"lock":null,"tourism":null,"width":null,"intermittent":null,"name:zu":null,"name:ga":null,"name:en":null,"name:ja":null,"name:cy":null,"left:district":null,"name:hu":null,"name:he":null,"motorboat":"yes","name:de":null,"right:district":null,"name:fr":null,"name:gv":null,"name:be":null,"name:ru":null,"tidal":"yes","name:pl":null,"name:gl":null,"name:zh":null,"boat":"yes","name:it":null,"name:ko":null,"name:fa":null,"name:es":null,"towpath":null,"wikidata":null,"lock_name":null,"lock_ref":null,"right:county":null,"name:nl":null,"left:county":null,"alt_name":null,"wikipedia":null}},{"type":"LineString","arcs":[16],"properties":{"osm_id":608139765,"waterway":"river","admin_level":null,"boundary":null,"name":"River Thames","layer":null,"tunnel":null,"lock":null,"tourism":null,"width":null,"intermittent":null,"name:zu":null,"name:ga":null,"name:en":null,"name:ja":null,"name:cy":null,"left:district":null,"name:hu":null,"name:he":null,"motorboat":"yes","name:de":null,"right:district":null,"name:fr":null,"name:gv":null,"name:be":null,"name:ru":null,"tidal":"yes","name:pl":null,"name:gl":null,"name:zh":null,"boat":"yes","name:it":null,"name:ko":null,"name:fa":null,"name:es":null,"towpath":null,"wikidata":null,"lock_name":null,"lock_ref":null,"right:county":null,"name:nl":null,"left:county":null,"alt_name":null,"wikipedia":null}},{"type":"LineString","arcs":[17],"properties":{"osm_id":608139670,"waterway":"river","admin_level":null,"boundary":null,"name":"River Thames","layer":null,"tunnel":null,"lock":null,"tourism":null,"width":null,"intermittent":null,"name:zu":null,"name:ga":null,"name:en":null,"name:ja":null,"name:cy":null,"left:district":null,"name:hu":null,"name:he":null,"motorboat":"yes","name:de":null,"right:district":null,"name:fr":null,"name:gv":null,"name:be":null,"name:ru":null,"tidal":"yes","name:pl":null,"name:gl":null,"name:zh":null,"boat":"yes","name:it":null,"name:ko":null,"name:fa":null,"name:es":null,"towpath":null,"wikidata":null,"lock_name":null,"lock_ref":null,"right:county":null,"name:nl":null,"left:county":null,"alt_name":null,"wikipedia":null}}]}},"crs":{"type":"name","properties":{"name":"urn:ogc:def:crs:OGC:1.3:CRS84"}}}